[{"OBJECT_NAME":"STARLINK-5913","OBJECT_ID":"2023-037Z","EPOCH":"2026-03-09T22:05:21.587136","MEAN_MOTION":14.98326194,"ECCENTRICITY":0.00025738,"INCLINATION":69.9984,"RA_OF_ASC_NODE":283.9196,"ARG_OF_PERICENTER":263.3203,"MEAN_ANOMALY":96.7663,"EPHEMERIS_TYPE":0,"CLASSIFICATION_TYPE":"U","NORAD_CAT_ID":55937,"ELEMENT_SET_NO":999,"REV_AT_EPOCH":16401,"BSTAR":-1.3971877e-5,"MEAN_MOTION_DOT":-2.6e-6,"MEAN_MOTION_DDOT":0},{"OBJECT_NAME":"DMSP 5D-2 F13 DEB","OBJECT_ID":"1995-015HF","EPOCH":"2026-03-08T15:33:20.356128","MEAN_MOTION":15.01113693,"ECCENTRICITY":0.00168904,"INCLINATION":98.8624,"RA_OF_ASC_NODE":112.9575,"ARG_OF_PERICENTER":188.2899,"MEAN_ANOMALY":171.8045,"EPHEMERIS_TYPE":0,"CLASSIFICATION_TYPE":"U","NORAD_CAT_ID":42289,"ELEMENT_SET_NO":999,"REV_AT_EPOCH":56056,"BSTAR":0.014483506,"MEAN_MOTION_DOT":0.00190863,"MEAN_MOTION_DDOT":0}]
